email,phonenumber,orderid,studentid,fulladdress,LocationData_fulladdress,fullname
laoreet.posuere@ornareFusce.com,16900420 2199,2307448,3613951,"386-5577 Sem, Road",1709 Etiam Rd.,Mia Winters
mauris@Donec.ca,16400529 4659,3973567,1052644,"463-4387 Enim, Ave",859-9545 Cubilia Av.,Herman Dickson
id@utlacus.co.uk,16190723 9253,4842871,1221143,"P.O. Box 489, 5703 Fermentum Rd.","P.O. Box 735, 3943 Ligula. Rd.",Shaine Porter
commodo.auctor.velit@metusIn.com,16671106 3328,4259409,9884268,Ap #745-1299 Molestie Avenue,422-8934 Ullamcorper. Rd.,Addison Bowman
ultrices@eusemPellentesque.net,16970622 5134,6124015,1561298,Ap #292-4120 Sociis Street,"P.O. Box 708, 3625 Fusce Rd.",Holmes Williams
Donec@Morbi.org,16880820 6158,4592700,5805575,9607 Proin St.,"3894 Scelerisque, Ave",Kelsey Bright
Donec.vitae@Quisquetinciduntpede.co.uk,16741013 2364,9582190,8243651,Ap #897-8169 Eu Street,693-5496 Nulla Rd.,Anne Campos
eu.tempor.erat@eleifend.net,16360218 4016,6436171,8351200,"P.O. Box 657, 7224 Vivamus Ave",8556 Suspendisse Street,Calvin Wagner
ullamcorper.Duis@velarcuCurabitur.net,16070917 7281,2271440,3060643,Ap #879-8643 Etiam Ave,"P.O. Box 131, 4144 Tincidunt, St.",Carter Branch
est@nunc.edu,16111113 1619,10126959,4944221,527-1581 Malesuada Avenue,1055 Vivamus St.,Yoshio Macias
ornare@ut.co.uk,16700925 0577,5031481,1586421,"P.O. Box 956, 9095 Convallis Road","Ap #808-6004 Ut, Rd.",Damian Chen
Duis.dignissim@ipsum.net,16751125 8456,2484452,9066193,3393 Sodales. St.,"Ap #596-4026 Elementum, Road",Benedict Acevedo
ligula.tortor.dictum@nislMaecenas.edu,16630416 6660,8350958,3211325,"P.O. Box 850, 9601 Ipsum. Rd.",Ap #769-7511 Elit. Rd.,Nehru Ochoa
ac.mattis@semper.org,16170422 4961,2141108,8818959,Ap #111-3959 Porta St.,Ap #699-3220 Lobortis Street,Amal Meyers
eros@mi.co.uk,16990204 1590,2049924,7969651,Ap #637-180 Eu Ave,Ap #937-1289 Nullam Road,Zelenia Hahn
Fusce@convallisligulaDonec.edu,16451007 3630,5851079,1014285,Ap #451-5295 Cum St.,8784 Maecenas St.,Ursa Madden
gravida.non.sollicitudin@quisarcu.org,16591019 7952,11420666,5074417,984-9567 Nisl St.,"P.O. Box 964, 409 Ligula Road",Clare Hester
a.nunc.In@mollisnec.ca,16270307 3235,8239438,1453409,4108 Id Rd.,8581 Ultricies Street,David Crawford
eget.dictum.placerat@dolorquam.edu,16761229 8948,11503922,3864248,340-8774 Arcu Ave,"1895 Luctus, Av.",Fitzgerald Morrison
ultricies.adipiscing@molestietortor.co.uk,16760304 6702,10076280,3089090,2794 Luctus Rd.,3830 A Rd.,Yeo Wiggins
sed@Mauris.org,16910212 0590,9891406,9375560,"P.O. Box 148, 6427 Rutrum St.","5566 Vulputate, Road",Rebecca Workman
felis.purus@nonegestas.com,16691129 2016,9340770,7074172,927-5087 Nullam St.,"Ap #998-7644 Dui, St.",Zephania Marsh
sem.elit@Sedpharetra.co.uk,16020721 6144,9272629,9873196,173 Elit. Rd.,"Ap #596-6180 Elementum, Ave",Jordan Mcguire
at.velit@euismodest.co.uk,16040715 0846,3926120,9089776,493-7869 Fusce Street,"411-2845 Facilisis, Av.",Galena Lott
odio@diamSed.net,16321202 6052,5235318,1115136,2082 Duis Street,"3051 Id, Av.",Arthur Clark
Aenean.gravida.nunc@Curabituregestasnunc.net,16150107 4411,9619537,5005699,Ap #253-719 Risus Street,2275 Est. Rd.,Grace Whitney
non@sagittis.edu,16240813 7665,8987262,4246045,Ap #236-5107 Cursus Rd.,890-609 Enim St.,Mufutau Knox
In.lorem.Donec@elit.com,16040619 2922,2227728,4541268,492-328 Orci St.,Ap #487-5062 Dignissim St.,Vera Lawrence
luctus.vulputate.nisi@inmolestietortor.co.uk,16781013 9365,2803735,9763306,Ap #903-9743 Ridiculus Rd.,1131 Ipsum Av.,Bell Jackson
vestibulum.neque@sem.ca,16640826 5475,6279527,9793008,8343 Arcu St.,6859 Nulla Street,Justin Sherman
iaculis.odio@Nullatempor.co.uk,16770228 7751,5577254,4765878,1096 Et Rd.,"222-1303 Orci, Av.",Ariana Wallace
ac@rhoncusProinnisl.edu,16321101 3358,8454028,7883295,685-9153 Mauris Av.,Ap #761-2272 Dapibus Street,Gail Rivas
laoreet.libero.et@Nullainterdum.net,16611223 2829,11366115,9122432,"P.O. Box 693, 7587 Posuere Rd.","Ap #134-8626 Quis, Rd.",Kevyn Mcclure
lorem.auctor@blandit.edu,16971021 5113,5178384,4311425,552-1368 Fermentum St.,Ap #325-3843 Mi Avenue,Vernon Pope
orci@Fuscedolor.ca,16460127 0418,2262015,1110719,Ap #758-4625 Curabitur Avenue,889-1103 Vestibulum St.,Jeremy Stephenson
vulputate@Cum.org,16280415 9362,8723781,2371582,299-4186 Porttitor Rd.,"173-7305 Eu, Av.",Reese Baker
fringilla.porttitor.vulputate@tortorNunccommodo.ca,16540525 8855,6394968,5017658,"P.O. Box 967, 7927 Elit Road",5560 Cras Street,Maisie Day
id.blandit@Nuncullamcorper.org,16100828 5031,5881679,6865302,"P.O. Box 100, 8296 Donec Avenue","Ap #123-6682 Urna, Rd.",Rana Perez
congue.turpis.In@adipiscingnonluctus.org,16041006 9066,8702290,6251083,745-3309 Egestas Avenue,"P.O. Box 735, 6650 Tortor, St.",Christian Saunders
semper@luctuset.org,16290117 3217,1981244,9507959,"517-2226 Imperdiet, St.","P.O. Box 544, 7559 A, Avenue",Rina Burton
sem.Pellentesque.ut@consectetuereuismod.co.uk,16570420 2349,3417686,1198424,125-4006 Donec Rd.,"P.O. Box 215, 1690 Magnis Avenue",Odessa Patrick
scelerisque.lorem@Ut.net,16310409 2212,8872692,1183412,7595 Molestie Ave,9087 Dapibus Rd.,Gloria Hyde
nec.luctus.felis@metus.net,16391001 8674,9319754,5201935,"999-6830 In, Avenue",Ap #964-5239 Duis Rd.,Megan Oconnor
eget.metus@hendreritDonec.com,16360929 6219,8758120,8819794,Ap #114-7962 Orci Rd.,Ap #444-8748 Suspendisse Road,Lacy Slater
egestas.Fusce.aliquet@Aenean.co.uk,16140322 8982,11854837,8118060,9973 Interdum Road,Ap #827-6303 Enim Street,Cassidy Fletcher
Integer.in@Quisqueornaretortor.net,16370501 8145,9237344,7247050,"P.O. Box 969, 4206 Imperdiet St.",172-4310 Ultrices Road,Maxwell Dixon
a.aliquet@lacusCrasinterdum.edu,16150205 7043,3996978,5876796,265 Metus. Av.,Ap #213-4257 Tempor Street,Rhona Perez
nec.tempus.scelerisque@mieleifendegestas.com,16201030 9603,4868590,9633172,668-1624 Placerat Road,"P.O. Box 614, 5330 Risus. Ave",Destiny Ellis
libero.Morbi@fringillamilacinia.net,16271024 2914,3973084,3578328,1822 Eget Street,"P.O. Box 426, 737 Scelerisque Street",Amelia Scott
molestie.sodales.Mauris@Cumsociis.ca,16430306 3996,1173983,5810636,"P.O. Box 257, 3493 Vel, St.",Ap #228-5364 Dictum Ave,Curran Decker
ullamcorper@erosturpis.com,16280528 0290,7187633,9799079,"P.O. Box 184, 4784 Malesuada Rd.",Ap #932-1914 Proin St.,Dante Reilly
est.vitae@utodio.com,16700901 0906,4221370,3241707,981-7879 Sit St.,"P.O. Box 951, 4895 Penatibus St.",Ina Mills
Lorem.ipsum@sedsem.edu,16310905 1379,4985862,9423375,2537 Enim. St.,406-1967 Erat Road,Cadman Craig
enim@facilisisloremtristique.edu,16030101 6150,3991665,8911982,"P.O. Box 727, 9277 In Street","P.O. Box 394, 4126 Convallis Road",Raphael Browning
lobortis.nisi.nibh@Aeneanegestashendrerit.ca,16000520 8780,6622311,8185532,738-2958 Metus. St.,Ap #753-6934 Egestas. St.,Ingrid Bradford
egestas@nullaDonecnon.org,16560906 8126,2855626,9790707,477-9641 Ornare St.,"P.O. Box 629, 1139 Ut Street",Savannah Padilla
tincidunt.orci.quis@dapibus.net,16650230 6621,4858998,6137157,189-1285 Felis. Ave,8108 Dolor St.,Yoshio Craig
eros.non@hymenaeosMauris.com,16060309 0820,5107600,2061149,489-1181 Sit Road,Ap #644-1000 Augue. Rd.,Geraldine England
et.magnis.dis@ornareliberoat.co.uk,16061210 1741,8142722,4559010,601-7898 Natoque Road,170-4150 Ligula. Av.,Igor Chang
risus.quis@Integeridmagna.edu,16341013 7784,1123800,1717383,331-5152 Velit Ave,342-1679 Sit Rd.,Hermione Wolf
magna.nec.quam@pharetraNam.com,16480112 6865,7496406,8976304,"P.O. Box 819, 7057 Phasellus Ave",Ap #898-6530 Ut Rd.,Sandra Murphy
sem@auctornunc.ca,16020427 1662,7439853,8216407,"P.O. Box 400, 4682 Non, Ave",8706 Aliquet Av.,Inez Hardy
turpis.In@ipsum.com,16131224 8394,2422286,9688092,730-581 Duis Street,3220 Donec Av.,Teagan Buck
in@hendreritnequeIn.com,16380427 9721,4750731,4464725,8546 Tellus. Ave,567-5729 Sociis Street,Brenda Chaney
Praesent.eu@leoVivamusnibh.org,16601209 3081,5502837,3495696,"3998 Suscipit, Avenue",9969 Purus. St.,Kameko Larson
ut.aliquam.iaculis@perconubianostra.edu,16100630 2499,3189766,1333023,"P.O. Box 236, 8899 Arcu. St.",Ap #614-6609 Lectus Rd.,Jolene Obrien
sem@liberodui.com,16320408 5819,3102491,5497367,"P.O. Box 488, 4804 Ac, Street",Ap #371-9693 Sit Street,Salvador Bowers
arcu@eu.ca,16120719 2889,3578980,7604545,845-8255 Massa. Rd.,"1237 Imperdiet, Av.",Kennedy Kirby
semper.Nam.tempor@vitae.edu,16490809 9510,3910515,3684602,403 Curabitur Street,"P.O. Box 765, 5213 Massa. Av.",Yetta Blake
non.arcu@maurisSuspendisse.org,16321008 0234,9476587,3190373,Ap #226-1009 Nec St.,"P.O. Box 643, 3322 Non, St.",Callum Odom
magna.et@ornare.net,16231225 7286,7344128,3764858,441-7340 Est St.,Ap #770-6177 Donec Avenue,Margaret Dickerson
et@Vestibulum.org,16010815 0632,6258769,6504043,948-8820 Fringilla. Street,8806 Curabitur Street,Fuller Pennington
sem@Sedauctorodio.net,16240726 8594,7665882,8117188,323-5805 Tempus Rd.,3573 Eu Av.,Quin Mercado
vel@dapibus.org,16840627 5761,3663072,7441263,672-4035 Nam Rd.,708-7533 Pede. Avenue,Hadassah Hayden
ac@tempor.net,16130109 2811,9567428,7727448,405-6598 Mattis Avenue,"P.O. Box 784, 8871 Molestie Street",Bell Phillips
Cras.dolor@Morbi.edu,16161109 6247,4045923,4747297,909-7171 Lacinia. St.,"4501 Placerat, Road",Abraham Foley
est.Nunc@nisia.org,16400107 7579,11018917,2911356,"998-9827 Congue, Avenue",Ap #244-390 Et Av.,Walker Webb
sed@nuncInat.org,16611110 2718,8556491,6725077,2169 Aliquam Rd.,215-2358 Dictum. St.,Ava Hughes
sapien.molestie.orci@diamat.ca,16360421 4290,5731882,3361669,5961 Quam Rd.,2341 Vestibulum Av.,Fletcher Schwartz
Phasellus.ornare.Fusce@aceleifendvitae.ca,16750529 8617,9951767,4490257,Ap #242-1481 Purus St.,"P.O. Box 276, 539 Lacinia. Street",Chantale Burgess
odio.tristique.pharetra@cursus.ca,16931206 5478,9851404,1833196,Ap #678-5027 Luctus Street,1177 Ac St.,Yen Fuentes
Nunc.ac@liberoProinmi.ca,16060121 5973,3376611,1099265,Ap #634-7453 Libero. Rd.,Ap #378-6185 Gravida Av.,Beatrice Heath
ut.pellentesque@fermentumarcuVestibulum.ca,16400929 3426,9609967,9014403,434-3028 Eros Avenue,780-8328 Eu Avenue,Teagan Burgess
quam.Curabitur.vel@ametrisusDonec.ca,16730501 5708,8602553,7602419,2665 Dui. Rd.,296-2843 Tincidunt Avenue,Ila Franco
vel.turpis.Aliquam@ProinultricesDuis.ca,16670319 7654,6367158,3669047,"2948 Urna, Avenue",8872 Rutrum Rd.,Sharon Russell
at.fringilla.purus@acmetusvitae.net,16021220 1594,4248745,7913980,7145 Nunc Street,Ap #490-9287 Lorem Rd.,Kuame Berg
vulputate.velit.eu@Craseget.ca,16010906 8692,9526736,3183445,Ap #298-2808 Laoreet Avenue,"Ap #400-9994 Vitae, Ave",Jackson Richmond
dolor.egestas@quisaccumsanconvallis.com,16920814 3322,5650659,1257717,"Ap #600-9238 Ac, Ave","P.O. Box 383, 6333 Non St.",Simone Paul
Mauris@in.co.uk,16580224 2247,7628942,4154862,1178 Libero Avenue,675-5554 Aliquam St.,Ella Lee
Sed.nulla@ipsumac.co.uk,16591022 0309,3957299,7582155,382-4768 Ut Rd.,Ap #257-3888 Semper Rd.,Tiger Mayer
enim.Mauris.quis@Vestibulum.com,16940504 1980,2793843,7440035,4289 Massa Avenue,417-8882 Molestie St.,Ali Kemp
eu.ligula.Aenean@lectusjustoeu.co.uk,16431229 3022,1217224,1151831,479-2955 Nec Ave,"P.O. Box 524, 9107 Nec, Avenue",Robin Fox
urna@porttitor.com,16130323 7406,4173642,5965487,442-6352 Vitae Road,Ap #512-5261 Laoreet Avenue,Nero Morin
tortor@ornarelectusante.edu,16950421 5451,2084305,2484724,3646 Ut St.,Ap #645-2571 Ultrices Ave,Alexa Bright
mattis@MaurisnullaInteger.org,16550616 1859,2520006,6464949,6529 Pede. St.,"577-1452 Vel, Avenue",Clio Cantu
aliquam@laoreet.org,16030911 9428,2853836,5724962,Ap #165-6374 Nulla. Ave,921-1095 Id Rd.,Davis Massey
Aenean.sed@Duisa.org,16280315 2814,9675865,1581759,319-7664 Nisl. St.,"P.O. Box 690, 6798 Malesuada Road",Jerry Garner
mauris.eu.elit@sapien.org,16631021 7077,9777656,2672817,"P.O. Box 350, 7571 Enim. Av.",8693 Nunc Av.,Brianna Simpson
augue@in.ca,16690412 1461,4593623,6681281,5616 Suspendisse St.,Ap #946-599 In Avenue,Zephr York
nunc.risus@vitae.co.uk,16240508 1486,1773597,3669790,1118 Amet Avenue,"132-2768 Mi, Ave",Irene Jennings